KUIPER-00053            
1 64513U 25134P   26008.33700218 -.00004787  00000+0 -59968-3 0  9991
2 64513  51.9023 129.9710 0000403  92.7807 267.3202 14.79910733 31279
KUIPER-00054            
1 64514U 25134Q   26008.47729561  .00002188  00000+0  31594-3 0  9995
2 64514  51.9020 124.3313 0005479 119.0326 241.1186 14.79938796 31362
KUIPER-00055            
1 64515U 25134R   26008.52702926  .00021271  00000+0  10250-2 0  9997
2 64515  51.8905 102.7633 0001750 325.5194  34.5671 15.18673208 31679
KUIPER-00056            
1 64516U 25134S   26008.33527798  .00005238  00000+0  71578-3 0  9995
2 64516  51.9018 131.0148 0002251 117.8669 242.2522 14.79918406 31264
KUIPER-00057            
1 64517U 25134T   26008.39459403  .00002150  00000+0  31083-3 0  9996
2 64517  51.9009 138.2339 0009736  81.3282 278.8783 14.79954698 31163
KUIPER-00058            
1 64518U 25134U   26008.33410630 -.00004961  00000+0 -62209-3 0  9998
2 64518  51.9001 132.4230 0004551 123.7479 236.3917 14.79923256 31244
KUIPER-00059            
1 64519U 25134V   26008.47454970 -.00000947  00000+0 -95158-4 0  9999
2 64519  51.8994 126.8541 0001844 280.3804  79.6951 14.79927687 31339
KUIPER-00060            
1 64520U 25134W   26008.47301140  .00005646  00000+0  76923-3 0  9998
2 64520  51.9024 127.9074 0002131 160.6964 199.4079 14.79918783 31302
